#dP2019  1 14  0  0  0.00000000     289 d+D   IGS14 FIT AIUB
## 2036  86400.00000000   300.00000000 58497 0.0000000000000
+   79   G01G02G03G04G05G06G07G08G09G10G11G12G13G14G15G16G17
+        G18G19G20G21G22G23G24G25G26G27G28G29G30G31G32R01R02
+        R03R04R05R07R08R09R10R11R13R14R15R16R17R18R19R20R21
+        R22R23R24R26E01E02E03E04E05E07E08E09E11E12E13E14E15
+        E18E19E21E24E25E26E27E30E31E33E36  0  0  0  0  0  0
++         1  1  1  3  1  1  1  1  1  1  1  1  1  1  1  1  1
++         1  1  1  1  1  1  1  1  1  1  1  1  1  1  1  2  2
++         2  2  2  2  2  2  2  1  2  2  1  2  1  1  2  2  2
++         1  1  2  3  1  1  1  2  1  1  1  1  1  1  2  2  2
++         1  2  1  1  1  1  1  1  2  3  4  0  0  0  0  0  0
%c M  cc GPS ccc cccc cccc cccc cccc ccccc ccccc ccccc ccccc
%c cc cc ccc ccc cccc cccc cccc cccc ccccc ccccc ccccc ccccc
%f  1.2500000  1.025000000  0.00000000000  0.000000000000000
%f  0.0000000  0.000000000  0.00000000000  0.000000000000000
%i    0    0    0    0      0      0      0      0         0
%i    0    0    0    0      0      0      0      0         0
/* CENTER FOR ORBIT DETERMINATION IN EUROPE (CODE)          
/* IGS-Repro3 GNSS orbits and clocks for year-day 2019-014  
/* Middle day of a 3-day long-arc GPS/GLO/GAL solution      
/* Product reference DOI: 10.7892/boris.135946              
/* PCV:IGS14      OL/AL:FES2014b NONE     YN ORB:CoN CLK:BRD
*  2019  1 14  2 55  0.00000000
PG01  13359.378678 -17516.795990  14439.583316   -145.000180
PG02 -14320.320897  -5820.141093 -21023.745488   -112.503398
PG03  21629.230000 -13300.582249  -7704.380209    177.036714
PG04  -5397.928876 -20305.041338 -16237.519560     82.100865
PG05 -24247.121887    660.240017 -11170.865387      0.799709
PG06  -8330.614603 -18581.803416 -17000.678708    297.327385
PG07   6052.289252 -25559.599260  -1192.641332     52.120798
PG08  19856.315284    692.012242  17766.312923   -128.984370
PG09   1094.100223 -17562.312183 -19941.667092    471.992114
PG10   6184.477097  13922.713573  21809.192407    135.961808
PG11  12055.024890 -13196.380083  19171.180115   -675.624618
PG12 -23659.461064  10527.804407  -5647.180721    276.546489
PG13 -20954.405851  -9322.886957  13305.620958    -78.391151
PG14  18351.861745  19325.046852    955.063641    -93.188721
PG15 -18850.114820   3423.572471  18293.623074   -332.331430
PG16  24445.826279   1194.204176 -11012.228848    -12.594496
PG17 -12557.749409 -21318.061488  10205.624151     -5.057713
PG18  15287.014251  -7646.244680  19813.655002     15.562561
PG19 -18276.278644 -19185.980407    110.428230   -363.589966
PG20  -3892.303808  17813.136133  19153.683815    521.097863
PG21  -1959.124180  26504.481592   2059.418414   -269.515610
PG22  24509.676734 -10163.446469    473.808898   -622.203995
PG23  11590.773252 -10407.530601 -21226.461764   -200.595900
PG24 -14641.273905  13407.297309  17343.964106    -60.767261
PG25 -15260.287548  15981.711831 -14740.233851   -705.583028
PG26  18376.123181   6737.320018 -18042.819019     95.758734
PG27  22467.454432  10005.344587  10302.796534    -48.645695
PG28  -3146.590337 -14670.658239  22538.721187    761.855300
PG29  -5142.365695  14840.254234 -21437.829857    293.795125
PG30  -1355.549715 -24654.703789   9566.789712    -35.532230
PG31   9936.123487  15799.477612 -18707.999840     65.923721
PG32  15478.965308  20221.855576   7772.836013   -275.781843
PR01 -21800.027456   3571.478447  12761.633948     37.904779
PR02  -3319.841203  10543.583867  23017.170506    349.272740
PR03  15326.998320  10531.655570  17514.538889    154.462458
PR04  25155.584038   4066.589003   1356.361562    291.224763
PR05  20417.628345  -4223.247977 -14707.371069     19.912670
PR07 -15699.123464 -10417.950272 -17147.676486    -55.801929
PR08 -25035.599618  -4411.398767  -2009.592027     19.568747
PR09   9324.425466 -20808.261823  11383.405151     48.881459
PR10  -2620.042690 -12886.309358  21821.542650     39.604668
PR11 -14905.085754   3071.064911  20496.835095    -53.425824
PR13  -9927.926655  21086.155773 -10383.522604    -18.966902
PR14   2864.354585  13064.842981 -21709.995518     34.921266
PR15  14359.533362  -2355.388133 -20932.206943     99.291994
PR16  17529.240377 -16710.025793  -8225.263568    -11.646655
PR17  10754.946003  22896.633140   3144.579785    195.994212
PR18  13608.148517  11937.610792  18019.881409     29.903129
PR19   9099.288320  -5458.365393  23203.331224    -62.131926
PR20  -1203.190446 -21217.938950  14085.837085   -365.531108
PR21 -10939.219965 -22766.026248  -3654.434689    -25.444223
PR22 -13273.537091  -9532.874356 -19527.822475    -64.303321
PR23  -6728.119623  10381.314046 -22308.171361    203.092379
PR24   2459.736243  21921.021475 -12840.107371   -176.008155
PR26   -431.306743 -20171.714517  15639.333411 999999.999999
PE01   9425.958477 -22573.386656  16670.984021 999999.999999
PE02  -9375.733046  22558.809498 -16703.367889 999999.999999
PE03    561.491030  17938.055085  23531.723784 999999.999999
PE04 -20461.381001 -16982.450187 -13004.192789 999999.999999
PE05 -19789.830453   8395.057742  20343.580510 999999.999999
PE07  28494.035960   6021.860948  -5271.392335 999999.999999
PE08  20688.455283  16702.042690  12993.716222 999999.999999
PE09 -28544.929393  -5810.663237   5292.469643 999999.999999
PE11 -17114.798874  -5624.657911 -23480.006345 999999.999999
PE12 -12372.844317 -24537.376722 -10970.297708 999999.999999
PE13  17083.792958   5748.026232  23491.460272 999999.999999
PE14  17516.271151  -1598.801806  16246.078762 999999.999999
PE15  12657.814339  24238.513455  11346.830698 999999.999999
PE18 -18217.757462  10423.186937 -24612.210164 999999.999999
PE19   1604.197647 -17282.245725 -23980.457345 999999.999999
PE21  22986.386284 -18588.391615  -1540.940822 999999.999999
PE24 -23010.063324   3914.468282  18182.136136 999999.999999
PE25 -23002.119931  18561.503760   1587.973890 999999.999999
PE26  11878.445108 -16011.959927  21891.580735 999999.999999
PE27  22769.586259  -3598.942868 -18567.492292 999999.999999
PE30   9611.628795  13211.205454 -24688.783137 999999.999999
PE31  -9200.049648 -13491.767445  24695.740219 999999.999999
PE33   -791.082494 -28622.372650   7510.234826 999999.999999
PE36 -11520.207813  16192.797329 -21925.638971 999999.999999
EOF





================================================================================
IGSREPRO3
================================================================================



